{
    "links": {
        "self": "http://www.neowsapp.com/rest/v1/neo/3602980?api_key=iIulBulltgU6a56xZRHN4H3l9WmuAYTsLGpBGhQ2"
    },
    "id": "3602980",
    "neo_reference_id": "3602980",
    "name": "(2012 HB25)",
    "designation": "2012 HB25",
    "nasa_jpl_url": "http://ssd.jpl.nasa.gov/sbdb.cgi?sstr=3602980",
    "absolute_magnitude_h": 24.8,
    "estimated_diameter": {
        "kilometers": {
            "estimated_diameter_min": 0.0291443905,
            "estimated_diameter_max": 0.0651688382
        },
        "meters": {
            "estimated_diameter_min": 29.1443904535,
            "estimated_diameter_max": 65.1688382168
        },
        "miles": {
            "estimated_diameter_min": 0.018109479,
            "estimated_diameter_max": 0.0404940262
        },
        "feet": {
            "estimated_diameter_min": 95.6180819754,
            "estimated_diameter_max": 213.8085311752
        }
    },
    "is_potentially_hazardous_asteroid": false,
    "close_approach_data": [
        {
            "close_approach_date": "2012-05-11",
            "close_approach_date_full": "2012-May-11 23:05",
            "epoch_date_close_approach": 1336777500000,
            "relative_velocity": {
                "kilometers_per_second": "10.5242282973",
                "kilometers_per_hour": "37887.2218701486",
                "miles_per_hour": "23541.6462781487"
            },
            "miss_distance": {
                "astronomical": "0.028436763",
                "lunar": "11.061900807",
                "kilometers": "4254079.17449481",
                "miles": "2643362.224695978"
            },
            "orbiting_body": "Earth"
        },
        {
            "close_approach_date": "2025-06-22",
            "close_approach_date_full": "2025-Jun-22 14:20",
            "epoch_date_close_approach": 1750602000000,
            "relative_velocity": {
                "kilometers_per_second": "4.8949026294",
                "kilometers_per_hour": "17621.6494657509",
                "miles_per_hour": "10949.4076916495"
            },
            "miss_distance": {
                "astronomical": "1.7003357638",
                "lunar": "661.4306121182",
                "kilometers": "254366608.549303106",
                "miles": "158056081.3946546228"
            },
            "orbiting_body": "Juptr"
        },
        {
            "close_approach_date": "2163-08-18",
            "close_approach_date_full": "2163-Aug-18 03:36",
            "epoch_date_close_approach": 6110307360000,
            "relative_velocity": {
                "kilometers_per_second": "18.803224446",
                "kilometers_per_hour": "67691.6080056094",
                "miles_per_hour": "42060.9327632632"
            },
            "miss_distance": {
                "astronomical": "0.2757607965",
                "lunar": "107.2709498385",
                "kilometers": "41253227.785903455",
                "miles": "25633567.101859479"
            },
            "orbiting_body": "Earth"
        }
    ],
    "orbital_data": {
        "orbit_id": "11",
        "orbit_determination_date": "2019-07-15 05:55:43",
        "first_observation_date": "2012-04-16",
        "last_observation_date": "2012-05-11",
        "data_arc_in_days": 25,
        "observations_used": 38,
        "orbit_uncertainty": "6",
        "minimum_orbit_intersection": ".000337111",
        "jupiter_tisserand_invariant": "3.246",
        "epoch_osculation": "2459000.5",
        "eccentricity": ".5958369433991065",
        "semi_major_axis": "2.418674952676183",
        "inclination": "1.508524914868184",
        "ascending_node_longitude": "287.5335630709647",
        "orbital_period": "1373.930256505427",
        "perihelion_distance": ".9775390617976276",
        "perihelion_argument": "334.6762140417692",
        "aphelion_distance": "3.859810843554739",
        "perihelion_time": "2458831.382370627828",
        "mean_anomaly": "44.31254518612553",
        "mean_motion": ".2620220337207327",
        "equinox": "J2000",
        "orbit_class": {
            "orbit_class_type": "APO",
            "orbit_class_description": "Near-Earth asteroid orbits which cross the Earth’s orbit similar to that of 1862 Apollo",
            "orbit_class_range": "a (semi-major axis) > 1.0 AU; q (perihelion) < 1.017 AU"
        }
    },
    "is_sentry_object": false
}